HAWK-A                  
1 43765U 18099H   26204.57167686  .00007405  00000+0  29393-3 0  9996
2 43765  97.3896 256.3375 0035480 154.8687 205.4288 15.25049324418646
HAWK-B                  
1 43794U 18099AN  26204.57133319  .00006507  00000+0  27428-3 0  9993
2 43794  97.3945 255.6755 0032216 172.6149 187.5570 15.23189238418575
HAWK-C                  
1 43799U 18099AT  26204.53041104  .00008732  00000+0  30877-3 0  9998
2 43799  97.3871 257.3906 0041060 154.7047 205.6215 15.28594984419460
HAWK-2C                 
1 47502U 21006CT  26204.59586167  .00006552  00000+0  19467-3 0  9995
2 47502  97.2264 248.1847 0008562  77.1167 283.1033 15.35067447305082
HAWK-2A                 
1 47505U 21006CW  26204.59795466  .00007515  00000+0  22272-3 0  9990
2 47505  97.2307 248.8866 0008080  80.7188 279.4969 15.35099654305080
HAWK-2B                 
1 47508U 21006CZ  26204.52559958  .00007423  00000+0  21912-3 0  9998
2 47508  97.2178 247.0899 0008672  79.1542 281.0677 15.35224502305075
HAWK-3B                 
1 48931U 21059BE  26204.50204902  .00048640  00000+0  36486-3 0  9999
2 48931  97.6638  44.7262 0005126 170.7586 189.3772 15.72474094283552
HAWK-3C                 
1 48948U 21059BX  26204.11991396  .00051915  00000+0  38987-3 0  9991
2 48948  97.6753  50.0517 0005424 171.4962 188.6393 15.72431800283490
HAWK-3A                 
1 48957U 21059CG  26204.50161008  .00050271  00000+0  37684-3 0  9990
2 48957  97.6700  47.6485 0005185 171.7361 188.3988 15.72483174283553
HAWK-5C                 
1 52754U 22057Y   26204.34360216  .00018311  00000+0  29988-3 0  9990
2 52754  97.6627   6.3826 0002342 304.3428  55.7602 15.52546450231954
HAWK-5B                 
1 52756U 22057AA  26204.34343574  .00019181  00000+0  31400-3 0  9998
2 52756  97.6638   4.7373 0003022 291.3947  68.6982 15.52546781231955
HAWK-5A                 
1 52757U 22057AB  26204.40767941  .00018409  00000+0  30144-3 0  9990
2 52757  97.6637   5.6359 0002919 296.9642  63.1311 15.52548930231961
HAWK-6B                 
1 55324U 23011A   26204.83654666  .00004371  00000+0  18888-3 0  9994
2 55324  40.4981 138.2572 0004564 283.3017  76.7283 15.23211892193435
HAWK-6C                 
1 55326U 23011C   26204.83591507  .00004405  00000+0  19029-3 0  9996
2 55326  40.4974 135.0963 0004995 279.4626  80.5619 15.23211246193448
HAWK-6A                 
1 55327U 23011D   26204.83595088  .00004437  00000+0  19160-3 0  9996
2 55327  40.4984 136.7238 0004809 275.4908  84.5352 15.23212079193449
HAWK-7A                 
1 56191U 23054P   26204.66329411  .00005355  00000+0  20051-3 0  9990
2 56191  97.2653  91.0727 0000943 261.2494  98.8639 15.27699387182591
